{"type": "FeatureCollection", "features": [{"type": "Feature", "properties": {"name": "Tumen"}, "geometry": {"type": "MultiLineString", "coordinates": [[[128.19337, 41.962226], [128.264578, 41.953315], [128.289236, 41.95539], [128.325613, 41.970242], [128.364757, 41.991523], [128.407319, 42.008612], [128.453624, 42.010606], [128.488048, 41.997829], [128.502208, 41.996365], [128.543468, 42.008328], [128.552989, 42.006903], [128.564057, 42.001044], [128.573334, 42.004584], [128.587413, 42.020209], [128.597341, 42.027411], [128.607514, 42.030463], [128.682221, 42.025987], [128.708995, 42.030463], [128.720632, 42.047878], [128.816824, 42.044135], [128.903331, 42.026557], [128.939708, 42.03559], [128.9546, 42.075466], [128.963634, 42.088813], [128.984793, 42.093126], [129.008718, 42.095282], [129.026296, 42.102159], [129.053152, 42.123074], [129.063243, 42.136339], [129.064464, 42.153998], [129.088308, 42.143419], [129.105154, 42.142361], [129.11964, 42.149604], [129.147553, 42.173936], [129.177419, 42.193671], [129.195974, 42.209499], [129.203868, 42.214545], [129.210948, 42.220242], [129.214122, 42.22602], [129.209076, 42.234931], [129.186615, 42.236274], [129.180593, 42.243354], [129.183116, 42.254747], [129.191905, 42.260077], [129.202647, 42.263007], [129.210948, 42.267279], [129.214692, 42.275946], [129.213878, 42.283962], [129.215994, 42.291327], [129.227631, 42.29796], [129.220307, 42.3039], [129.212332, 42.308051], [129.203298, 42.31037], [129.193614, 42.310981], [129.193614, 42.318427], [129.226003, 42.318427], [129.235932, 42.324164], [129.241954, 42.338935], [129.240001, 42.344306], [129.233897, 42.346747], [129.228282, 42.35045], [129.227631, 42.359442], [129.230968, 42.367947], [129.235769, 42.374579], [129.242768, 42.378974], [129.296397, 42.387519], [129.303396, 42.389838], [129.306733, 42.407904], [129.315115, 42.422553], [129.326264, 42.427069], [129.337494, 42.414659], [129.351736, 42.420844], [129.343435, 42.42947], [129.338308, 42.438585], [129.339854, 42.445665], [129.351736, 42.448188], [129.362885, 42.445258], [129.371755, 42.432807], [129.385916, 42.42829], [129.395112, 42.430487], [129.405854, 42.436225], [129.418549, 42.44127], [129.433849, 42.441352], [129.482188, 42.410956], [129.488455, 42.402777], [129.516694, 42.391181], [129.523204, 42.383612], [129.526541, 42.373358], [129.534923, 42.369818], [129.545014, 42.371527], [129.553803, 42.377143], [129.559093, 42.387234], [129.559825, 42.39704], [129.562999, 42.404364], [129.587413, 42.411648], [129.594249, 42.422471], [129.595307, 42.435899], [129.591401, 42.448188], [129.633311, 42.445665], [129.670909, 42.438178], [129.703054, 42.442694], [129.728526, 42.476142], [129.733409, 42.51203], [129.731293, 42.551215], [129.736339, 42.585395], [129.762706, 42.606472], [129.762706, 42.612657], [129.746023, 42.615749], [129.741303, 42.629259], [129.750662, 42.643175], [129.776378, 42.647406], [129.771983, 42.661933], [129.778901, 42.6706], [129.787201, 42.677069], [129.786388, 42.685004], [129.774099, 42.69363], [129.764171, 42.697089], [129.757335, 42.703925], [129.755382, 42.72252], [129.756928, 42.734931], [129.760916, 42.746365], [129.773041, 42.767157], [129.789154, 42.792751], [129.794851, 42.806708], [129.798839, 42.836859], [129.833995, 42.907742], [129.841238, 42.918036], [129.846283, 42.928494], [129.84726, 42.951524], [129.851573, 42.962104], [129.862885, 42.969306], [129.893077, 42.971788], [129.906749, 42.976386], [129.897472, 42.978949], [129.88974, 42.983018], [129.8838, 42.988715], [129.879405, 42.996283], [129.890391, 42.999701], [129.908946, 43.008734], [129.920421, 43.010565], [129.933686, 43.008653], [129.941417, 43.003852], [129.971446, 42.973944], [129.981293, 42.966986], [129.995535, 42.962104], [130.008067, 42.960761], [130.046967, 42.962104], [130.094168, 42.977159], [130.121349, 42.982123], [130.133311, 42.972968], [130.1303, 42.959744], [130.122325, 42.943549], [130.111339, 42.929307], [130.098562, 42.921739], [130.140147, 42.907335], [130.193451, 42.908474], [130.238455, 42.902533], [130.256114, 42.867133], [130.241954, 42.782294], [130.242686, 42.743598], [130.262299, 42.708848], [130.316905, 42.667589], [130.324474, 42.650499], [130.39267, 42.606472], [130.403494, 42.604315], [130.412608, 42.604926], [130.420095, 42.60456], [130.427419, 42.599636], [130.429698, 42.591742], [130.425955, 42.572333], [130.430919, 42.561794], [130.452159, 42.549628], [130.467784, 42.555203], [130.470795, 42.570014], [130.454845, 42.585395], [130.467459, 42.600653], [130.483897, 42.610297], [130.501069, 42.610948], [130.516124, 42.599636], [130.519216, 42.588894], [130.524913, 42.549506], [130.530528, 42.530707], [130.54241, 42.51081], [130.5442, 42.506537], [130.545828, 42.495551], [130.549734, 42.490668], [130.554454, 42.48786], [130.558523, 42.482937], [130.57545, 42.44599], [130.587169, 42.432237], [130.605561, 42.420844], [130.628347, 42.415066], [130.645518, 42.401068], [130.656342, 42.38349], [130.660248, 42.359442], [130.659923, 42.334174], [130.662527, 42.320828], [130.672781, 42.311387], [130.700206, 42.295111]]]}}, {"type": "Feature", "properties": {"name": "Yalu"}, "geometry": {"type": "MultiLineString", "coordinates": [[[124.959239, 40.453925], [124.971609, 40.453925], [124.988699, 40.458075], [125.013682, 40.457628], [125.03476, 40.462104], [125.041026, 40.474962], [125.028819, 40.491034], [125.009939, 40.509792], [125.014415, 40.52558], [125.03476, 40.539618], [125.053315, 40.547675], [125.0796, 40.552029], [125.101573, 40.558783], [125.119151, 40.565619], [125.137218, 40.576972], [125.155203, 40.589219], [125.187104, 40.5987], [125.217296, 40.605414], [125.240489, 40.613471], [125.25823, 40.621527], [125.266775, 40.631903], [125.275645, 40.645087], [125.293224, 40.650824], [125.314057, 40.65001], [125.326589, 40.642646], [125.336436, 40.641384]]]}}, {"type": "Feature", "properties": {"name": "Yalu"}, "geometry": {"type": "MultiLineString", "coordinates": [[[128.090587, 41.917507], [128.094005, 41.901719], [128.099701, 41.888861], [128.100841, 41.8758], [128.090587, 41.859158], [128.09075, 41.841986], [128.096609, 41.822821], [128.144054, 41.754991], [128.154552, 41.733954], [128.158783, 41.712022], [128.185639, 41.693183], [128.223888, 41.669704], [128.25058, 41.660427], [128.268647, 41.643622], [128.281261, 41.623236], [128.283132, 41.605292], [128.302745, 41.583686], [128.287364, 41.544949], [128.185313, 41.404731], [128.145925, 41.376532], [128.103608, 41.37934], [128.117931, 41.393622], [128.103608, 41.399848], [128.087901, 41.389187], [128.063975, 41.388617], [128.046479, 41.398993], [128.050222, 41.420966], [128.033295, 41.413926], [128.023529, 41.411729], [128.014903, 41.41352], [128.011322, 41.424628], [128.01295, 41.442572], [128.012218, 41.460313], [128.001231, 41.471055], [127.992442, 41.461371], [127.984304, 41.45421], [127.973888, 41.450629], [127.943858, 41.471055], [127.903331, 41.466498], [127.881277, 41.461127], [127.871511, 41.453966], [127.864757, 41.437608], [127.848562, 41.431586], [127.828543, 41.434149], [127.810069, 41.443793], [127.784434, 41.43712], [127.689952, 41.439154], [127.662364, 41.447211], [127.657725, 41.446804], [127.646658, 41.433173], [127.638194, 41.430121], [127.630382, 41.433051], [127.597097, 41.450629], [127.558604, 41.458523], [127.544444, 41.469062], [127.542491, 41.491523], [127.525401, 41.484565], [127.508067, 41.488349], [127.490733, 41.495632], [127.473643, 41.49905], [127.456716, 41.494981], [127.4428, 41.488308], [127.427257, 41.483344], [127.404796, 41.484727], [127.400971, 41.487087], [127.395518, 41.491563], [127.388194, 41.496283], [127.378673, 41.49905], [127.370942, 41.498318], [127.353526, 41.492947], [127.343842, 41.491523], [127.304779, 41.4949], [127.286062, 41.499213], [127.268891, 41.505194], [127.274913, 41.507595], [127.283295, 41.512397], [127.28948, 41.518826], [127.288666, 41.525702], [127.281261, 41.531317], [127.274425, 41.530707], [127.2671, 41.527533], [127.257823, 41.525702], [127.244151, 41.528266], [127.22169, 41.541042], [127.206716, 41.54621], [127.200125, 41.542304], [127.187022, 41.521674], [127.179454, 41.517157], [127.174083, 41.519477], [127.170095, 41.524115], [127.164806, 41.528754], [127.155528, 41.530829], [127.1421, 41.524115], [127.134369, 41.522284], [127.12794, 41.531806], [127.120616, 41.53502], [127.111827, 41.536933], [127.10434, 41.537665], [127.117686, 41.556016], [127.136241, 41.569444], [127.157481, 41.578884], [127.179454, 41.585395], [127.165701, 41.595242], [127.113699, 41.610663], [127.096934, 41.612738], [127.101573, 41.622585], [127.10434, 41.62641], [127.073822, 41.635932], [127.058686, 41.643581], [127.049083, 41.653673], [127.045014, 41.66824], [127.048595, 41.678005], [127.059255, 41.682481], [127.076427, 41.681016], [127.067963, 41.693874], [127.046479, 41.71955], [127.042247, 41.732856], [127.032725, 41.731879], [126.980886, 41.763536], [126.958344, 41.767035], [126.945811, 41.766425], [126.94044, 41.771999], [126.939138, 41.794013], [126.929617, 41.801337], [126.908214, 41.796413], [126.886811, 41.785183], [126.877208, 41.77379], [126.86435, 41.747504], [126.808523, 41.730048], [126.795828, 41.705268], [126.788178, 41.696153], [126.771088, 41.704779], [126.741222, 41.729438], [126.72698, 41.737169], [126.712169, 41.741523], [126.696544, 41.741523], [126.679128, 41.736274], [126.686941, 41.724311], [126.699311, 41.716661], [126.713878, 41.710232], [126.72755, 41.701483], [126.711925, 41.694444], [126.679779, 41.672146], [126.668956, 41.667344], [126.633718, 41.668891], [126.617605, 41.666205], [126.601654, 41.642279], [126.566824, 41.614325], [126.566173, 41.602159], [126.576915, 41.588487], [126.580496, 41.575466], [126.576915, 41.562038], [126.558442, 41.534369], [126.542003, 41.489203], [126.507253, 41.447455], [126.500987, 41.434638], [126.507823, 41.409451], [126.521902, 41.377794], [126.521983, 41.35224], [126.487397, 41.344591], [126.487397, 41.352078], [126.493582, 41.355048], [126.496186, 41.358262], [126.497976, 41.362006], [126.500987, 41.366278], [126.472179, 41.366726], [126.440684, 41.34866], [126.391124, 41.303656], [126.380382, 41.291083], [126.356944, 41.24962], [126.345795, 41.23786], [126.320811, 41.219102], [126.309174, 41.208075], [126.284109, 41.164374], [126.274425, 41.152777], [126.260509, 41.143378], [126.147065, 41.092475], [126.123546, 41.075751], [126.137787, 41.057237], [126.126069, 41.043402], [126.111095, 41.032742], [126.101003, 41.022284], [126.10377, 41.009467], [126.093191, 41.006456], [126.083507, 41.002753], [126.07545, 40.997341], [126.069021, 40.989569], [126.071544, 40.980821], [126.065684, 40.968858], [126.045095, 40.944892], [126.02825, 40.935492], [126.009044, 40.932929], [125.991791, 40.928575], [125.980154, 40.913845], [125.996186, 40.915147], [126.009532, 40.91413], [126.014903, 40.909369], [126.007498, 40.899604], [125.994721, 40.894355], [125.963878, 40.891547], [125.949229, 40.882839], [125.935964, 40.877631], [125.923595, 40.884304], [125.912039, 40.894355], [125.901134, 40.899604], [125.884858, 40.897732], [125.872488, 40.89293], [125.831391, 40.871039], [125.821707, 40.86994], [125.778819, 40.884833], [125.770518, 40.88642], [125.760509, 40.885932], [125.754487, 40.881903], [125.750499, 40.874945], [125.745372, 40.868354], [125.736501, 40.865424], [125.706065, 40.860663], [125.682872, 40.848212], [125.64446, 40.810818], [125.672944, 40.784369], [125.682384, 40.76911], [125.668386, 40.762397], [125.609793, 40.761501], [125.607921, 40.76435], [125.600108, 40.772976], [125.586192, 40.782091], [125.571544, 40.785102], [125.559825, 40.778632], [125.555105, 40.758979], [125.553152, 40.737372], [125.546316, 40.726142], [125.532725, 40.722032], [125.491466, 40.721218], [125.478526, 40.719021], [125.468761, 40.713162], [125.459483, 40.701606], [125.456554, 40.693915], [125.456065, 40.679958], [125.452647, 40.673651], [125.44337, 40.669013], [125.425955, 40.671454], [125.418468, 40.666815], [125.414643, 40.652167], [125.416921, 40.639512], [125.413015, 40.632025], [125.390636, 40.632636], [125.384288, 40.635321], [125.372162, 40.644151], [125.363292, 40.646918], [125.355724, 40.646308], [125.336436, 40.641384]], [[124.959239, 40.453925], [124.935069, 40.455837], [124.92571, 40.458116], [124.917654, 40.461371], [124.914968, 40.466132], [124.905284, 40.476752], [124.895112, 40.483913], [124.890229, 40.478095], [124.883474, 40.465766], [124.849539, 40.43183], [124.800548, 40.394314], [124.779552, 40.383734], [124.756602, 40.379462], [124.740815, 40.370551], [124.730968, 40.349962], [124.722992, 40.326972], [124.712169, 40.310492], [124.692556, 40.303046], [124.642182, 40.294501], [124.626882, 40.286322], [124.61085, 40.272406], [124.570567, 40.252631], [124.554454, 40.241645], [124.551524, 40.236396], [124.549897, 40.224962], [124.54835, 40.221137], [124.542898, 40.217841], [124.531993, 40.216254], [124.527843, 40.214382], [124.385265, 40.110663], [124.370209, 40.098253]]]}}]}